OBJECT_NAME,OBJECT_ID,EPOCH,MEAN_MOTION,ECCENTRICITY,INCLINATION,RA_OF_ASC_NODE,ARG_OF_PERICENTER,MEAN_ANOMALY,EPHEMERIS_TYPE,CLASSIFICATION_TYPE,NORAD_CAT_ID,ELEMENT_SET_NO,REV_AT_EPOCH,BSTAR,MEAN_MOTION_DOT,MEAN_MOTION_DDOT
GSAT-18,2016-060A,2026-06-11T17:01:11.117280,1.00270872,.0005547,0.0486,109.9560,321.6234,157.7550,0,U,41793,999,3547,0,-.6E-6,0
SKY MUSTER 2 (NBN1B),2016-060B,2026-06-11T17:21:16.690176,1.00270247,.0001375,0.0181,330.3390,108.9092,225.9445,0,U,41794,999,3546,0,-.228E-5,0
HIMAWARI-9,2016-064A,2026-06-11T17:20:09.298176,1.00271004,.0000786,0.0483,150.8117,345.7408,164.3304,0,U,41836,999,3515,0,-.258E-5,0
SHIJIAN-17 (SJ-17),2016-065A,2026-06-11T13:49:42.568896,0.99853586,.0001784,5.7379,72.6706,27.9307,250.9664,0,U,41838,999,3514,0,.46E-6,0
GOES 16,2016-071A,2026-06-11T16:10:12.877824,1.00270209,.0000269,0.3260,85.5664,302.7889,9.5344,0,U,41866,999,3504,0,-.74E-6,0
TIANLIAN 1-04,2016-072A,2026-06-11T15:47:52.520928,1.00270404,.004207,0.8542,82.9519,89.7091,141.1116,0,U,41869,999,3524,0,.47E-6,0
WGS F8 (USA 272),2016-075A,2026-06-10T19:31:14.551104,1.00269780,.00002155,0.0052,354.0386,337.6670,10.0750,0,U,41879,999,3475,0,-.185E-5,0
FENGYUN 4A,2016-077A,2026-06-11T17:15:24.751872,1.00271838,.0008532,2.3075,80.3541,151.8402,50.5055,0,U,41882,999,3487,0,-.341E-5,0
ECHOSTAR 19,2016-079A,2026-06-11T12:47:03.316992,1.00270624,.000123,0.0183,2.2153,74.8390,277.4959,0,U,41893,999,3464,0,-.122E-5,0
JCSAT-110A (JCSAT-15),2016-082A,2026-06-10T19:07:03.044064,1.00272705,.00005138,0.0175,336.1538,148.6067,171.2267,0,U,41903,999,3469,0,-.333E-5,0
STAR ONE D1,2016-082B,2026-06-11T12:50:47.957856,1.00272261,.0002287,0.0124,45.1764,50.6276,272.7783,0,U,41904,999,3471,0,-.194E-5,0
TJS-2,2017-001A,2026-06-11T17:43:53.233248,1.00272711,.000054,0.8187,85.4000,37.5812,109.6282,0,U,41911,999,3466,0,.9E-7,0
SBIRS GEO-4 (USA 273),2017-004A,2026-06-11T16:46:01.943040,1.00271748,.0001989,2.2321,43.1147,32.2209,97.1169,0,U,41937,999,3454,0,.138E-5,0
HISPASAT 36W-1,2017-006A,2026-06-11T16:29:48.500160,1.00271863,.0001071,0.0064,283.4255,160.8858,27.1864,0,U,41942,999,3419,0,-.228E-5,0
TELKOM 3S,2017-007A,2026-06-11T16:14:27.534912,1.00266035,.0002028,0.0202,2.8830,85.1548,173.5734,0,U,41944,999,3408,0,0,0
INTELSAT 32E (IS-32E),2017-007B,2026-06-11T06:10:21.113184,1.00268917,.0000534,0.0031,63.2625,226.5375,19.2132,0,U,41945,999,3416,0,-.252E-5,0
ECHOSTAR 23,2017-014A,2026-06-09T00:50:20.785056,1.00276522,.00014908,0.0199,341.1115,88.1607,90.8350,0,U,42070,999,3384,0,0,0
WGS F9 (USA 275),2017-016A,2026-06-11T06:20:40.456032,1.00270955,.0000057,0.0098,295.5794,332.8343,74.3696,0,U,42075,999,3383,0,-.79E-6,0
SES-10,2017-017A,2026-06-10T06:07:42.491424,1.00268899,.0002765,0.0225,36.2587,50.3805,197.0045,0,U,42432,999,3368,0,-.255E-5,0
CHINASAT 16 (SJ-13),2017-018A,2026-06-11T18:12:47.471328,1.00270081,.0003926,0.0980,91.3752,138.4966,53.9780,0,U,42662,999,3369,0,-.336E-5,0
KOREASAT 7,2017-023A,2026-06-11T18:04:51.740832,1.00269985,.0000545,0.0215,3.8667,72.8250,210.4986,0,U,42691,999,3331,0,-.345E-5,0
SGDC,2017-023B,2026-06-11T11:40:13.589760,1.00270538,.0002651,0.0374,74.2300,16.6467,269.1651,0,U,42692,999,3334,0,-.233E-5,0
GSAT-9,2017-024A,2026-06-11T17:15:28.353024,1.00271462,.0002581,0.0050,346.6989,89.2905,180.2915,0,U,42695,999,3324,0,-.27E-5,0
INMARSAT 5-F4,2017-025A,2026-06-09T03:20:25.525248,1.00273429,.00000655,0.0177,351.8920,193.2614,178.9583,0,U,42698,999,3319,0,.92E-6,0
SES-15,2017-026A,2026-06-08T12:46:06.263616,1.00270105,.00005164,0.0197,332.0701,88.0806,259.1449,0,U,42709,999,734,0,.76E-6,0
QZS-2 (MICHIBIKI-2),2017-028A,2026-06-09T12:56:43.810944,1.00285994,.07605811,39.4388,243.2674,269.1776,81.0235,0,U,42738,999,754,0,-.147E-5,0
VIASAT-2,2017-029A,2026-06-09T02:44:22.598880,1.00271449,.00001717,0.0187,291.3466,135.2981,162.0599,0,U,42740,999,3312,0,-.249E-5,0
EUTELSAT 172B,2017-029B,2026-06-11T15:46:22.664064,1.00272141,.0000212,0.0449,149.6549,83.1334,75.8186,0,U,42741,999,3368,0,.11E-6,0
GSAT-19,2017-031A,2026-06-09T11:51:12.298176,1.00271642,.00068744,0.1124,90.5949,350.9443,41.9894,0,U,42747,999,3307,0,.142E-5,0
ECHOSTAR 21,2017-032A,2026-06-11T16:42:54.741888,1.00271685,.000212,1.7716,355.3218,92.1077,73.6001,0,U,42749,999,3304,0,.8E-6,0
BULGARIASAT-1,2017-038A,2026-06-09T01:22:06.159072,1.00269313,.00034291,0.0199,281.2746,171.9526,186.6324,0,U,42801,999,3276,0,.27E-6,0
HELLAS-SAT 3,2017-040A,2026-06-08T23:50:02.722848,1.00273758,.00046263,0.0579,55.5659,354.8875,243.4447,0,U,42814,999,3272,0,.169E-5,0
